GLOBALSTAR M024         
1 25883U 99043A   26063.50827832 -.00000041  00000+0  84705-3 0  9995
2 25883  52.0010 153.2440 0002217 153.2274 297.9790 11.10171996143772
GLOBALSTAR M027         
1 25884U 99043B   26063.44766624 -.00000062  00000+0  65576-4 0  9999
2 25884  52.0183 238.7381 0021938  53.5298 306.7513 11.04373416169994
GLOBALSTAR M054         
1 25885U 99043C   26063.12758834 -.00000046  00000+0  63784-3 0  9999
2 25885  52.0170 323.1272 0004075 268.1703 241.4985 11.39224856148678
GLOBALSTAR M053         
1 25886U 99043D   26063.08278719 -.00000044  00000+0  71721-3 0  9992
2 25886  51.9976 284.7509 0003719 148.0404  13.1664 11.27670891148763
GLOBALSTAR M058         
1 25907U 99049A   26063.33147007 -.00000068  00000+0  22372-3 0  9999
2 25907  51.9933 134.5142 0002266  65.4069 294.7002 11.93208040572591
GLOBALSTAR M050         
1 25908U 99049B   26063.58386200 -.00000046  00000+0  47255-3 0  9990
2 25908  51.9983 122.0606 0009393 188.2552 339.7037 12.07465350179645
GLOBALSTAR M033         
1 25909U 99049C   26063.16605281 -.00000109  00000+0 -16280-3 0  9993
2 25909  51.9943 337.0862 0015043  78.8151 281.4387 12.20304568567484
GLOBALSTAR M055         
1 25910U 99049D   26063.09175583 -.00000059  00000+0  30274-3 0  9996
2 25910  52.0048 335.3845 0006691 317.0657  42.9672 12.29441144200251
GLOBALSTAR M057         
1 25943U 99058A   26063.11060256 -.00000046  00000+0  42512-3 0  9999
2 25943  52.0012 330.5363 0002189 175.0176 185.0695 12.24834693198784
GLOBALSTAR M059         
1 25944U 99058B   26063.38135933 -.00000093  00000+0 -89724-4 0  9994
2 25944  51.9998 223.2537 0001315 114.4898 259.0179 11.99994974605282
GLOBALSTAR M056         
1 25945U 99058C   26063.42389211 -.00000117  00000+0 -34053-3 0  9991
2 25945  51.9943 218.4293 0000942  32.9796 343.0775 12.04785952193991
GLOBALSTAR M031         
1 25946U 99058D   26063.58734676  .00000046  00000+0  13857-2 0  9995
2 25946  51.9949  94.7106 0001110   1.1059 174.7570 12.16049774196223
GLOBALSTAR M039         
1 25961U 99062A   26063.50779752 -.00000106  00000+0 -11472-4 0  9995
2 25961  51.9834 195.8166 0002697 186.5154 173.5678 12.62342753213092
GLOBALSTAR M034         
1 25962U 99062B   26063.30365030 -.00000075  00000+0  10083-3 0  9994
2 25962  51.9884  55.2261 0014202 172.3619 293.2335 11.79456019169084
GLOBALSTAR M029         
1 25963U 99062C   26063.61086073 -.00000045  00000+0  50940-3 0  9999
2 25963  51.9791 110.4459 0002245 258.5273 269.6100 11.99908799200387
GLOBALSTAR M061         
1 25964U 99062D   26063.45430160 -.00000067  00000+0  21426-3 0  9993
2 25964  51.9767 242.3294 0006975  95.1142 283.7406 11.76778644151826
