[{"OBJECT_NAME":"GLOBALSTAR M024","OBJECT_ID":"1999-043A","EPOCH":"2026-03-04T12:11:55.246848","MEAN_MOTION":11.10171996,"ECCENTRICITY":0.00022179,"INCLINATION":52.001,"RA_OF_ASC_NODE":153.244,"ARG_OF_PERICENTER":153.2274,"MEAN_ANOMALY":297.979,"EPHEMERIS_TYPE":0,"CLASSIFICATION_TYPE":"U","NORAD_CAT_ID":25883,"ELEMENT_SET_NO":999,"REV_AT_EPOCH":14377,"BSTAR":0.00084704631,"MEAN_MOTION_DOT":-4.1e-7,"MEAN_MOTION_DDOT":0},{"OBJECT_NAME":"GLOBALSTAR M027","OBJECT_ID":"1999-043B","EPOCH":"2026-03-04T10:44:38.363136","MEAN_MOTION":11.04373416,"ECCENTRICITY":0.00219383,"INCLINATION":52.0183,"RA_OF_ASC_NODE":238.7381,"ARG_OF_PERICENTER":53.5298,"MEAN_ANOMALY":306.7513,"EPHEMERIS_TYPE":0,"CLASSIFICATION_TYPE":"U","NORAD_CAT_ID":25884,"ELEMENT_SET_NO":999,"REV_AT_EPOCH":16999,"BSTAR":6.5576334e-5,"MEAN_MOTION_DOT":-6.2e-7,"MEAN_MOTION_DDOT":0},{"OBJECT_NAME":"GLOBALSTAR M054","OBJECT_ID":"1999-043C","EPOCH":"2026-03-04T03:03:43.632576","MEAN_MOTION":11.39224856,"ECCENTRICITY":0.00040758,"INCLINATION":52.017,"RA_OF_ASC_NODE":323.1272,"ARG_OF_PERICENTER":268.1703,"MEAN_ANOMALY":241.4985,"EPHEMERIS_TYPE":0,"CLASSIFICATION_TYPE":"U","NORAD_CAT_ID":25885,"ELEMENT_SET_NO":999,"REV_AT_EPOCH":14867,"BSTAR":0.00063784088,"MEAN_MOTION_DOT":-4.6e-7,"MEAN_MOTION_DDOT":0},{"OBJECT_NAME":"GLOBALSTAR M053","OBJECT_ID":"1999-043D","EPOCH":"2026-03-04T01:59:12.813216","MEAN_MOTION":11.27670891,"ECCENTRICITY":0.00037198,"INCLINATION":51.9976,"RA_OF_ASC_NODE":284.7509,"ARG_OF_PERICENTER":148.0404,"MEAN_ANOMALY":13.1664,"EPHEMERIS_TYPE":0,"CLASSIFICATION_TYPE":"U","NORAD_CAT_ID":25886,"ELEMENT_SET_NO":999,"REV_AT_EPOCH":14876,"BSTAR":0.00071721153,"MEAN_MOTION_DOT":-4.4e-7,"MEAN_MOTION_DDOT":0},{"OBJECT_NAME":"GLOBALSTAR M058","OBJECT_ID":"1999-049A","EPOCH":"2026-03-04T07:57:19.014048","MEAN_MOTION":11.9320804,"ECCENTRICITY":0.00022666,"INCLINATION":51.9933,"RA_OF_ASC_NODE":134.5142,"ARG_OF_PERICENTER":65.4069,"MEAN_ANOMALY":294.7002,"EPHEMERIS_TYPE":0,"CLASSIFICATION_TYPE":"U","NORAD_CAT_ID":25907,"ELEMENT_SET_NO":999,"REV_AT_EPOCH":57259,"BSTAR":0.00022371884,"MEAN_MOTION_DOT":-6.8e-7,"MEAN_MOTION_DDOT":0},{"OBJECT_NAME":"GLOBALSTAR M050","OBJECT_ID":"1999-049B","EPOCH":"2026-03-04T14:00:45.676800","MEAN_MOTION":12.0746535,"ECCENTRICITY":0.00093931,"INCLINATION":51.9983,"RA_OF_ASC_NODE":122.0606,"ARG_OF_PERICENTER":188.2552,"MEAN_ANOMALY":339.7037,"EPHEMERIS_TYPE":0,"CLASSIFICATION_TYPE":"U","NORAD_CAT_ID":25908,"ELEMENT_SET_NO":999,"REV_AT_EPOCH":17964,"BSTAR":0.00047254963,"MEAN_MOTION_DOT":-4.6e-7,"MEAN_MOTION_DDOT":0},{"OBJECT_NAME":"GLOBALSTAR M033","OBJECT_ID":"1999-049C","EPOCH":"2026-03-04T03:59:06.962784","MEAN_MOTION":12.20304568,"ECCENTRICITY":0.00150431,"INCLINATION":51.9943,"RA_OF_ASC_NODE":337.0862,"ARG_OF_PERICENTER":78.8151,"MEAN_ANOMALY":281.4387,"EPHEMERIS_TYPE":0,"CLASSIFICATION_TYPE":"U","NORAD_CAT_ID":25909,"ELEMENT_SET_NO":999,"REV_AT_EPOCH":56748,"BSTAR":-0.0001628002,"MEAN_MOTION_DOT":-1.09e-6,"MEAN_MOTION_DDOT":0},{"OBJECT_NAME":"GLOBALSTAR M055","OBJECT_ID":"1999-049D","EPOCH":"2026-03-04T02:12:07.703712","MEAN_MOTION":12.29441144,"ECCENTRICITY":0.00066916,"INCLINATION":52.0048,"RA_OF_ASC_NODE":335.3845,"ARG_OF_PERICENTER":317.0657,"MEAN_ANOMALY":42.9672,"EPHEMERIS_TYPE":0,"CLASSIFICATION_TYPE":"U","NORAD_CAT_ID":25910,"ELEMENT_SET_NO":999,"REV_AT_EPOCH":20025,"BSTAR":0.0003027441,"MEAN_MOTION_DOT":-5.9e-7,"MEAN_MOTION_DDOT":0},{"OBJECT_NAME":"GLOBALSTAR M057","OBJECT_ID":"1999-058A","EPOCH":"2026-03-04T02:39:16.061184","MEAN_MOTION":12.24834693,"ECCENTRICITY":0.00021899,"INCLINATION":52.0012,"RA_OF_ASC_NODE":330.5363,"ARG_OF_PERICENTER":175.0176,"MEAN_ANOMALY":185.0695,"EPHEMERIS_TYPE":0,"CLASSIFICATION_TYPE":"U","NORAD_CAT_ID":25943,"ELEMENT_SET_NO":999,"REV_AT_EPOCH":19878,"BSTAR":0.0004251173,"MEAN_MOTION_DOT":-4.6e-7,"MEAN_MOTION_DDOT":0},{"OBJECT_NAME":"GLOBALSTAR M059","OBJECT_ID":"1999-058B","EPOCH":"2026-03-04T09:09:09.446112","MEAN_MOTION":11.99994974,"ECCENTRICITY":0.00013153,"INCLINATION":51.9998,"RA_OF_ASC_NODE":223.2537,"ARG_OF_PERICENTER":114.4898,"MEAN_ANOMALY":259.0179,"EPHEMERIS_TYPE":0,"CLASSIFICATION_TYPE":"U","NORAD_CAT_ID":25944,"ELEMENT_SET_NO":999,"REV_AT_EPOCH":60528,"BSTAR":-8.9723752e-5,"MEAN_MOTION_DOT":-9.3e-7,"MEAN_MOTION_DDOT":0},{"OBJECT_NAME":"GLOBALSTAR M056","OBJECT_ID":"1999-058C","EPOCH":"2026-03-04T10:10:24.278304","MEAN_MOTION":12.04785952,"ECCENTRICITY":9.422e-5,"INCLINATION":51.9943,"RA_OF_ASC_NODE":218.4293,"ARG_OF_PERICENTER":32.9796,"MEAN_ANOMALY":343.0775,"EPHEMERIS_TYPE":0,"CLASSIFICATION_TYPE":"U","NORAD_CAT_ID":25945,"ELEMENT_SET_NO":999,"REV_AT_EPOCH":19399,"BSTAR":-0.0003405337,"MEAN_MOTION_DOT":-1.17e-6,"MEAN_MOTION_DDOT":0},{"OBJECT_NAME":"GLOBALSTAR M031","OBJECT_ID":"1999-058D","EPOCH":"2026-03-04T14:05:46.760064","MEAN_MOTION":12.16049774,"ECCENTRICITY":0.00011101,"INCLINATION":51.9949,"RA_OF_ASC_NODE":94.7106,"ARG_OF_PERICENTER":1.1059,"MEAN_ANOMALY":174.757,"EPHEMERIS_TYPE":0,"CLASSIFICATION_TYPE":"U","NORAD_CAT_ID":25946,"ELEMENT_SET_NO":999,"REV_AT_EPOCH":19622,"BSTAR":0.0013857107,"MEAN_MOTION_DOT":4.6e-7,"MEAN_MOTION_DDOT":0},{"OBJECT_NAME":"GLOBALSTAR M039","OBJECT_ID":"1999-062A","EPOCH":"2026-03-04T12:11:13.705728","MEAN_MOTION":12.62342753,"ECCENTRICITY":0.00026978,"INCLINATION":51.9834,"RA_OF_ASC_NODE":195.8166,"ARG_OF_PERICENTER":186.5154,"MEAN_ANOMALY":173.5678,"EPHEMERIS_TYPE":0,"CLASSIFICATION_TYPE":"U","NORAD_CAT_ID":25961,"ELEMENT_SET_NO":999,"REV_AT_EPOCH":21309,"BSTAR":-1.1471799e-5,"MEAN_MOTION_DOT":-1.06e-6,"MEAN_MOTION_DDOT":0},{"OBJECT_NAME":"GLOBALSTAR M034","OBJECT_ID":"1999-062B","EPOCH":"2026-03-04T07:17:15.385920","MEAN_MOTION":11.79456019,"ECCENTRICITY":0.00142026,"INCLINATION":51.9884,"RA_OF_ASC_NODE":55.2261,"ARG_OF_PERICENTER":172.3619,"MEAN_ANOMALY":293.2335,"EPHEMERIS_TYPE":0,"CLASSIFICATION_TYPE":"U","NORAD_CAT_ID":25962,"ELEMENT_SET_NO":999,"REV_AT_EPOCH":16908,"BSTAR":0.00010083047,"MEAN_MOTION_DOT":-7.5e-7,"MEAN_MOTION_DDOT":0},{"OBJECT_NAME":"GLOBALSTAR M029","OBJECT_ID":"1999-062C","EPOCH":"2026-03-04T14:39:38.367072","MEAN_MOTION":11.99908799,"ECCENTRICITY":0.00022451,"INCLINATION":51.9791,"RA_OF_ASC_NODE":110.4459,"ARG_OF_PERICENTER":258.5273,"MEAN_ANOMALY":269.61,"EPHEMERIS_TYPE":0,"CLASSIFICATION_TYPE":"U","NORAD_CAT_ID":25963,"ELEMENT_SET_NO":999,"REV_AT_EPOCH":20038,"BSTAR":0.00050940441,"MEAN_MOTION_DOT":-4.5e-7,"MEAN_MOTION_DDOT":0},{"OBJECT_NAME":"GLOBALSTAR M061","OBJECT_ID":"1999-062D","EPOCH":"2026-03-04T10:54:11.658240","MEAN_MOTION":11.76778644,"ECCENTRICITY":0.0006975,"INCLINATION":51.9767,"RA_OF_ASC_NODE":242.3294,"ARG_OF_PERICENTER":95.1142,"MEAN_ANOMALY":283.7406,"EPHEMERIS_TYPE":0,"CLASSIFICATION_TYPE":"U","NORAD_CAT_ID":25964,"ELEMENT_SET_NO":999,"REV_AT_EPOCH":15182,"BSTAR":0.00021426111,"MEAN_MOTION_DOT":-6.7e-7,"MEAN_MOTION_DDOT":0}]
